[{"OBJECT_NAME":"STARLINK-4294","OBJECT_ID":"2022-083AW","EPOCH":"2026-03-09T11:52:30.271584","MEAN_MOTION":15.08845139,"ECCENTRICITY":0.0001353,"INCLINATION":53.2171,"RA_OF_ASC_NODE":149.9071,"ARG_OF_PERICENTER":95.9983,"MEAN_ANOMALY":264.1164,"EPHEMERIS_TYPE":0,"CLASSIFICATION_TYPE":"U","NORAD_CAT_ID":53176,"ELEMENT_SET_NO":999,"REV_AT_EPOCH":20153,"BSTAR":-0.00010508181,"MEAN_MOTION_DOT":-1.96e-5,"MEAN_MOTION_DDOT":0},{"OBJECT_NAME":"CZ-6A DEB","OBJECT_ID":"2024-126C","EPOCH":"2026-03-09T22:45:09.534528","MEAN_MOTION":15.08339588,"ECCENTRICITY":0.00034995,"INCLINATION":97.8272,"RA_OF_ASC_NODE":88.0703,"ARG_OF_PERICENTER":249.9832,"MEAN_ANOMALY":110.1019,"EPHEMERIS_TYPE":0,"CLASSIFICATION_TYPE":"U","NORAD_CAT_ID":60213,"ELEMENT_SET_NO":999,"REV_AT_EPOCH":9177,"BSTAR":0.0010886629,"MEAN_MOTION_DOT":0.00016868,"MEAN_MOTION_DDOT":0}]
